IRIDIUM 155             
1 43573U 18061E   25202.96646313  .00000050  00000+0  10768-4 0  9997
2 43573  86.3986 194.6471 0002069  83.5864 276.5567 14.34217943366020
IRIDIUM 154             
1 43574U 18061F   25202.94743600  .00000049  00000+0  10380-4 0  9991
2 43574  86.3991 194.7723 0002278  88.5434 271.6023 14.34217970366076
IRIDIUM 163             
1 43575U 18061G   25203.20748108  .00000093  00000+0  26146-4 0  9996
2 43575  86.3987 194.5893 0002347  84.5906 275.5558 14.34218459366085
IRIDIUM 156             
1 43576U 18061H   25203.04257410  .00000042  00000+0  79152-5 0  9990
2 43576  86.3988 194.6652 0001939  86.6140 273.5278 14.34217891366042
IRIDIUM 164             
1 43577U 18061J   25202.95377853  .00000114  00000+0  33600-4 0  9991
2 43577  86.3989 194.7374 0002246  94.3052 265.8400 14.34218246366086
IRIDIUM 159             
1 43578U 18061K   25203.06160355  .00000033  00000+0  47161-5 0  9990
2 43578  86.3989 194.6360 0002494  90.0126 270.1356 14.34217593366062
IRIDIUM 180             
1 43922U 19002A   25202.85179156  .00000130  00000+0  39181-4 0  9994
2 43922  86.4001 131.7076 0002326  82.1206 278.0254 14.34218849341648
IRIDIUM 176             
1 43923U 19002B   25202.83592774  .00000762  00000+0  11695-3 0  9998
2 43923  86.6125 131.7041 0002308  70.2038 289.9428 14.72262823350648
IRIDIUM 168             
1 43924U 19002C   25202.84544990  .00000050  00000+0  10925-4 0  9993
2 43924  86.4003 131.7782 0002218  83.4566 276.6882 14.34218155341628
IRIDIUM 173             
1 43925U 19002D   25202.90254085  .00000213  00000+0  68922-4 0  9995
2 43925  86.4000 131.6569 0002255  79.5909 280.5541 14.34219134341619
IRIDIUM 169             
1 43926U 19002E   25203.14054642  .00000248  00000+0  74595-4 0  9991
2 43926  86.4272 163.1437 0001865  47.4615 312.6741 14.38608200342776
IRIDIUM 172             
1 43927U 19002F   25202.89619230  .00000011  00000+0 -31185-5 0  9991
2 43927  86.4000 131.6662 0002396  82.2741 277.8726 14.34217554341625
IRIDIUM 175             
1 43928U 19002G   25202.69501269  .00000668  00000+0  10196-3 0  9996
2 43928  86.1478  82.3092 0001446  98.0220 262.1161 14.72249926350612
IRIDIUM 171             
1 43929U 19002H   25202.87716295  .00000207  00000+0  66809-4 0  9996
2 43929  86.4009 131.9439 0002035  91.6718 268.4711 14.34217360341613
IRIDIUM 170             
1 43930U 19002J   25203.18195581  .00000826  00000+0  12710-3 0  9990
2 43930  86.6126 131.5640 0002255  79.8795 280.2677 14.72252267350704
IRIDIUM 167             
1 43931U 19002K   25203.21966309 -.00000004  00000+0 -84585-5 0  9990
2 43931  86.4001 131.5508 0001675  86.9278 273.2109 14.34217522341668
IRIDIUM 181             
1 56726U 23068S   25202.95989110  .00000180  00000+0  47551-4 0  9992
2 56726  86.4527 194.7167 0002356 103.4027 256.7436 14.43311406114802
IRIDIUM 177             
1 56727U 23068T   25202.81831992  .00001061  00000+0  13615-3 0  9994
2 56727  86.1992 125.6982 0002248  90.5199 269.6280 14.80231334117490
IRIDIUM 174             
1 56728U 23068U   25202.82975533  .00000799  00000+0  12274-3 0  9993
2 56728  86.6133 131.8249 0002931  75.4000 284.7542 14.72257710117418
IRIDIUM 178             
1 56729U 23068V   25202.94262333  .00001011  00000+0  12962-3 0  9996
2 56729  86.6592 163.3345 0002694  84.2512 275.9017 14.80235229117517
IRIDIUM 179             
1 56730U 23068W   25203.41046521  .00001102  00000+0  14163-3 0  9996
2 56730  86.6841 171.1118 0003073  78.8598 281.2969 14.80226353117587
